[{"OBJECT_NAME":"SATELIOT_2","OBJECT_ID":"2024-149BU","EPOCH":"2026-03-09T17:03:51.267456","MEAN_MOTION":14.95943652,"ECCENTRICITY":0.00018846,"INCLINATION":97.6894,"RA_OF_ASC_NODE":145.4857,"ARG_OF_PERICENTER":85.8882,"MEAN_ANOMALY":274.2555,"EPHEMERIS_TYPE":0,"CLASSIFICATION_TYPE":"U","NORAD_CAT_ID":60534,"ELEMENT_SET_NO":999,"REV_AT_EPOCH":8509,"BSTAR":0.00020754308,"MEAN_MOTION_DOT":2.267e-5,"MEAN_MOTION_DDOT":0},{"OBJECT_NAME":"STARLINK-34437","OBJECT_ID":"2025-126C","EPOCH":"2026-03-09T23:34:18.023520","MEAN_MOTION":14.98330455,"ECCENTRICITY":0.00030023,"INCLINATION":70.0035,"RA_OF_ASC_NODE":33.8073,"ARG_OF_PERICENTER":264.1696,"MEAN_ANOMALY":95.9121,"EPHEMERIS_TYPE":0,"CLASSIFICATION_TYPE":"U","NORAD_CAT_ID":64346,"ELEMENT_SET_NO":999,"REV_AT_EPOCH":4072,"BSTAR":-0.00016943203,"MEAN_MOTION_DOT":-2.114e-5,"MEAN_MOTION_DDOT":0}]
